OBJECT_NAME,OBJECT_ID,EPOCH,MEAN_MOTION,ECCENTRICITY,INCLINATION,RA_OF_ASC_NODE,ARG_OF_PERICENTER,MEAN_ANOMALY,EPHEMERIS_TYPE,CLASSIFICATION_TYPE,NORAD_CAT_ID,ELEMENT_SET_NO,REV_AT_EPOCH,BSTAR,MEAN_MOTION_DOT,MEAN_MOTION_DDOT
SIRION PATHFINDER-2,2018-099B,2026-05-09T09:28:35.973984,15.14194597,.0010456,97.4283,179.3789,78.3945,281.8460,0,U,43759,999,40675,.20134E-3,.3614E-4,0
CORVUS BC4,2018-099K,2026-05-09T02:01:47.453664,15.12176624,.0009695,97.4098,173.2129,130.2612,229.9468,0,U,43767,999,40649,.21011E-3,.3565E-4,0
M2 PATHFINDER,2020-037E,2026-05-09T11:22:23.468736,15.04507366,.0010398,97.8168,320.2722,285.5873,74.4204,0,U,45727,999,31967,.17096E-3,.2332E-4,0
NETSAT-4,2020-068U,2026-05-09T11:28:47.349120,15.42588899,.0007683,97.8626,134.6502,99.3778,260.8337,0,U,46504,999,30980,.30057E-3,.12989E-3,0
NETSAT-3,2020-068V,2026-05-09T12:27:31.053024,15.41358441,.000745,97.8673,132.9615,111.9555,248.2483,0,U,46505,999,30972,.31904E-3,.13237E-3,0
NETSAT-1,2020-068W,2026-05-09T12:32:11.217984,15.33706793,.0006575,97.8759,127.7407,131.0068,229.1743,0,U,46506,999,30937,.2861E-3,.9245E-4,0
NETSAT-2,2020-068X,2026-05-09T12:03:13.356288,15.44373450,.0006084,97.8641,134.4408,119.5540,240.6314,0,U,46507,999,30976,.36199E-3,.16635E-3,0
GREENCUBE (IO-117),2022-080E,2026-05-09T10:20:24.023040,6.42583325,.0008865,70.1440,311.7298,298.7662,61.2107,0,U,53109,999,8957,0,-.3E-7,0
SITRO-AIS 5 (KATYS),2023-091L,2026-05-09T10:58:21.082080,15.28573847,.0010439,97.5079,193.0117,233.1277,126.9006,0,U,57176,999,15842,.31731E-3,.8759E-4,0
SITRO-AIS 6 (CHIRKIN),2023-091AC,2026-05-09T11:31:22.399104,15.25224907,.0010616,97.5087,192.3540,237.1324,122.8893,0,U,57192,999,15838,.17806E-3,.4405E-4,0
SITRO-AIS 8 (ANOKHIN),2023-091AD,2026-05-09T11:23:13.546176,15.31100391,.0009751,97.5074,194.4658,228.3427,131.6979,0,U,57193,999,15852,.334E-3,.9972E-4,0
SITRO-AIS 7 (FARTUSHNIY),2023-091AE,2026-05-09T11:24:51.268896,15.24932293,.0010442,97.5085,192.1938,238.3145,121.7075,0,U,57194,999,15837,.18686E-3,.4585E-4,0
SITRO-AIS 10 (BURDAEV),2023-091AK,2026-05-09T11:14:11.698944,15.37167357,.0006712,97.5094,199.1281,198.2583,161.8421,0,U,57199,999,15881,.39349E-3,.14255E-3,0
SITRO-AIS 9 (SHCHUKIN),2023-091AM,2026-05-09T11:35:19.124736,15.36715253,.0006918,97.5092,198.9022,198.8410,161.2578,0,U,57201,999,15880,.39543E-3,.14118E-3,0
SITRO-AIS 12 (SMIRENNIY),2023-091AQ,2026-05-09T11:32:12.601824,15.36998500,.0006718,97.5105,199.3433,192.6115,167.4962,0,U,57204,999,15882,.40212E-3,.1449E-3,0
SITRO-AIS 11 (SHEFFER),2023-091AU,2026-05-09T12:06:15.724224,15.37390381,.0006651,97.5102,199.5907,192.2324,167.8760,0,U,57208,999,15884,.39109E-3,.14269E-3,0
SITRO-AIS 25,2024-039R,2026-05-09T12:19:05.865312,14.93240461,.0147653,95.3918,208.5214,103.1950,258.5795,0,U,59066,999,11895,.32016E-3,.4117E-4,0
SITRO-AIS 26,2024-039S,2026-05-09T12:13:35.845824,14.93043007,.0147984,95.3922,208.4243,103.7415,258.0332,0,U,59067,999,11894,.32595E-3,.4173E-4,0
SITRO-AIS 27,2024-039T,2026-05-09T11:46:12.635328,14.93450863,.0146977,95.3916,208.6651,102.5512,259.2198,0,U,59068,999,11896,.33092E-3,.4272E-4,0
SITRO-AIS 28,2024-039U,2026-05-09T12:51:29.434176,14.93487326,.0146744,95.3924,208.7415,102.2298,259.5405,0,U,59071,999,11897,.26884E-3,.3466E-4,0
GRBBETA,2024-128C,2026-05-09T04:35:19.801824,15.06321555,.0045729,61.9913,353.0501,126.5070,234.0248,0,U,60237,999,10039,.20948E-3,.2946E-4,0
OOV-CUBE (TUBSAT-30),2024-128F,2026-05-09T09:26:50.949600,15.02577725,.0049235,61.9964,0.8243,125.2479,235.3235,0,U,60240,999,10028,.1449E-3,.177E-4,0
ROBUSTA-3A (MEDITERRANEE),2024-128J,2026-05-09T07:09:45.438048,15.11070471,.0046566,61.9877,345.7037,120.3289,240.2424,0,U,60243,999,10054,.37191E-3,.6193E-4,0
LASARSAT,2024-247Q,2026-05-09T09:05:31.473600,15.44007397,.0004505,44.9740,119.8729,90.2978,269.8427,0,U,62391,999,7731,.56666E-3,.2615E-3,0
CROCUBE,2024-247T,2026-05-09T08:31:23.065248,15.45577756,.0004137,44.9720,117.9122,91.0579,269.0784,0,U,62394,999,7733,.61312E-3,.2991E-3,0
FORESAIL-1 PRIME,2025-276DS,2026-05-09T10:44:09.572064,15.18347276,.0001425,97.4205,203.4360,200.9720,159.1456,0,U,66778,999,2452,.17301E-3,.3486E-4,0
KNACKSAT-2,1998-067XZ,2026-05-09T10:06:00.709056,15.56677774,.0012674,51.6279,128.9489,55.0153,305.2027,0,U,67683,999,1423,.48308E-3,.34901E-3,0
