SIRION PATHFINDER-2     
1 43759U 18099B   26129.39486081  .00003614  00000+0  20134-3 0  9990
2 43759  97.4283 179.3789 0010456  78.3945 281.8460 15.14194597406756
CORVUS BC4              
1 43767U 18099K   26129.08457702  .00003565  00000+0  21011-3 0  9993
2 43767  97.4098 173.2129 0009694 130.2612 229.9468 15.12176624406492
M2 PATHFINDER           
1 45727U 20037E   26129.47388274  .00002332  00000+0  17096-3 0  9995
2 45727  97.8168 320.2722 0010398 285.5873  74.4204 15.04507366319677
NETSAT-4                
1 46504U 20068U   26129.47832580  .00012989  00000+0  30057-3 0  9998
2 46504  97.8626 134.6502 0007683  99.3778 260.8337 15.42588899309805
NETSAT-3                
1 46505U 20068V   26129.51910941  .00013237  00000+0  31904-3 0  9991
2 46505  97.8673 132.9615 0007450 111.9555 248.2483 15.41358441309720
NETSAT-1                
1 46506U 20068W   26129.52235206  .00009245  00000+0  28610-3 0  9991
2 46506  97.8759 127.7407 0006575 131.0068 229.1743 15.33706793309372
NETSAT-2                
1 46507U 20068X   26129.50223792  .00016635  00000+0  36199-3 0  9999
2 46507  97.8641 134.4408 0006084 119.5540 240.6314 15.44373450309767
GREENCUBE (IO-117)      
1 53109U 22080E   26129.43083360 -.00000003  00000+0  00000+0 0  9999
2 53109  70.1440 311.7298 0008865 298.7662  61.2107  6.42583325 89578
SITRO-AIS 5 (KATYS)     
1 57176U 23091L   26129.45718845  .00008759  00000+0  31731-3 0  9999
2 57176  97.5079 193.0117 0010439 233.1277 126.9006 15.28573847158423
SITRO-AIS 6 (CHIRKIN)   
1 57192U 23091AC  26129.48012036  .00004405  00000+0  17806-3 0  9990
2 57192  97.5087 192.3540 0010616 237.1324 122.8893 15.25224907158387
SITRO-AIS 8 (ANOKHIN)   
1 57193U 23091AD  26129.47446234  .00009972  00000+0  33400-3 0  9993
2 57193  97.5074 194.4658 0009751 228.3427 131.6979 15.31100391158527
SITRO-AIS 7 (FARTUSHNIY)
1 57194U 23091AE  26129.47559339  .00004585  00000+0  18686-3 0  9999
2 57194  97.5085 192.1938 0010442 238.3145 121.7075 15.24932293158379
SITRO-AIS 10 (BURDAEV)  
1 57199U 23091AK  26129.46819096  .00014255  00000+0  39349-3 0  9996
2 57199  97.5094 199.1281 0006712 198.2583 161.8421 15.37167357158811
SITRO-AIS 9 (SHCHUKIN)  
1 57201U 23091AM  26129.48286024  .00014118  00000+0  39543-3 0  9995
2 57201  97.5092 198.9022 0006918 198.8410 161.2578 15.36715253158805
SITRO-AIS 12 (SMIRENNIY)
1 57204U 23091AQ  26129.48070141  .00014490  00000+0  40212-3 0  9997
2 57204  97.5105 199.3433 0006718 192.6115 167.4962 15.36998500158821
SITRO-AIS 11 (SHEFFER)  
1 57208U 23091AU  26129.50434866  .00014269  00000+0  39109-3 0  9999
2 57208  97.5102 199.5907 0006651 192.2324 167.8760 15.37390381158840
SITRO-AIS 25            
1 59066U 24039R   26129.51326233  .00004117  00000+0  32016-3 0  9996
2 59066  95.3918 208.5214 0147653 103.1950 258.5795 14.93240461118959
SITRO-AIS 26            
1 59067U 24039S   26129.50944266  .00004173  00000+0  32595-3 0  9992
2 59067  95.3922 208.4243 0147984 103.7415 258.0332 14.93043007118943
SITRO-AIS 27            
1 59068U 24039T   26129.49042402  .00004272  00000+0  33092-3 0  9995
2 59068  95.3916 208.6651 0146977 102.5512 259.2198 14.93450863118965
SITRO-AIS 28            
1 59071U 24039U   26129.53575734  .00003466  00000+0  26884-3 0  9998
2 59071  95.3924 208.7415 0146744 102.2298 259.5405 14.93487326118976
GRBBETA                 
1 60237U 24128C   26129.19120142  .00002946  00000+0  20948-3 0  9991
2 60237  61.9913 353.0501 0045729 126.5070 234.0248 15.06321555100393
OOV-CUBE (TUBSAT-30)    
1 60240U 24128F   26129.39364525  .00001770  00000+0  14490-3 0  9991
2 60240  61.9964   0.8243 0049235 125.2479 235.3235 15.02577725100284
ROBUSTA-3A (MEDITERRAN*)
1 60243U 24128J   26129.29844257  .00006193  00000+0  37191-3 0  9995
2 60243  61.9877 345.7037 0046566 120.3289 240.2424 15.11070471100541
LASARSAT                
1 62391U 24247Q   26129.37883650  .00026150  00000+0  56666-3 0  9995
2 62391  44.9740 119.8729 0004505  90.2978 269.8427 15.44007397 77313
CROCUBE                 
1 62394U 24247T   26129.35512807  .00029910  00000+0  61312-3 0  9990
2 62394  44.9720 117.9122 0004137  91.0579 269.0784 15.45577756 77339
FORESAIL-1 PRIME        
1 66778U 25276DS  26129.44733301  .00003486  00000+0  17301-3 0  9996
2 66778  97.4205 203.4360 0001425 200.9720 159.1456 15.18347276 24521
KNACKSAT-2              
1 67683U 98067XZ  26129.42084154  .00034901  00000+0  48308-3 0  9990
2 67683  51.6279 128.9489 0012674  55.0153 305.2027 15.56677774 14236
